[{"OBJECT_NAME":"STARLINK-1835","OBJECT_ID":"2020-074AV","EPOCH":"2026-03-10T00:00:02.999808","MEAN_MOTION":15.58512564,"ECCENTRICITY":0.00054997,"INCLINATION":53.0462,"RA_OF_ASC_NODE":273.318,"ARG_OF_PERICENTER":13.506,"MEAN_ANOMALY":307.0156,"EPHEMERIS_TYPE":0,"CLASSIFICATION_TYPE":"U","NORAD_CAT_ID":46782,"ELEMENT_SET_NO":999,"REV_AT_EPOCH":583,"BSTAR":0.0023118228,"MEAN_MOTION_DOT":0.00183599,"MEAN_MOTION_DDOT":0},{"OBJECT_NAME":"COSMOS 1408 DEB","OBJECT_ID":"1982-092ALR","EPOCH":"2026-03-09T18:12:47.403072","MEAN_MOTION":15.6244858,"ECCENTRICITY":0.00237417,"INCLINATION":82.5714,"RA_OF_ASC_NODE":343.2099,"ARG_OF_PERICENTER":182.9883,"MEAN_ANOMALY":177.1238,"EPHEMERIS_TYPE":0,"CLASSIFICATION_TYPE":"U","NORAD_CAT_ID":50621,"ELEMENT_SET_NO":999,"REV_AT_EPOCH":23606,"BSTAR":0.00039817485,"MEAN_MOTION_DOT":0.00035952,"MEAN_MOTION_DDOT":0}]
